[{"OBJECT_NAME":"OBJECT D","OBJECT_ID":"2024-092D","EPOCH":"2026-03-09T21:12:33.501312","MEAN_MOTION":15.33078357,"ECCENTRICITY":0.00083397,"INCLINATION":97.6418,"RA_OF_ASC_NODE":198.2302,"ARG_OF_PERICENTER":141.9853,"MEAN_ANOMALY":218.1979,"EPHEMERIS_TYPE":0,"CLASSIFICATION_TYPE":"U","NORAD_CAT_ID":59776,"ELEMENT_SET_NO":999,"REV_AT_EPOCH":10051,"BSTAR":0.00076511005,"MEAN_MOTION_DOT":0.00024443,"MEAN_MOTION_DDOT":0},{"OBJECT_NAME":"STARLINK-35108","OBJECT_ID":"2025-216E","EPOCH":"2026-03-09T21:28:32.742624","MEAN_MOTION":15.30211752,"ECCENTRICITY":0.00014695,"INCLINATION":53.158,"RA_OF_ASC_NODE":332.041,"ARG_OF_PERICENTER":114.6975,"MEAN_ANOMALY":245.4178,"EPHEMERIS_TYPE":0,"CLASSIFICATION_TYPE":"U","NORAD_CAT_ID":65738,"ELEMENT_SET_NO":999,"REV_AT_EPOCH":2662,"BSTAR":0.00083434508,"MEAN_MOTION_DOT":0.00024442,"MEAN_MOTION_DDOT":0}]
